NORAD_CAT_ID,OBJECT_NAME,OBJECT_TYPE,EPOCH,MEAN_MOTION,ECCENTRICITY,INCLINATION,RA_OF_ASC_NODE,ARG_OF_PERICENTER,MEAN_ANOMALY,BSTAR,MEAN_MOTION_DOT,MEAN_MOTION_DDOT,TLE_LINE0,TLE_LINE1,TLE_LINE2,SEMIMAJOR_AXIS,PERIOD,APOGEE,PERIGEE,DECAYED
51965.0,STARLINK-3696,PAYLOAD,2022-04-15 04:00:00,15.73256645,0.0001378,53.2142,318.6295,133.9803,61.449,-0.00024234,-0.00034574,0.0,0 STARLINK-3696,1 51965U 22025K   22105.16667824 -.00034574  00000-0 -24234-3 0  9990,2 51965  53.2142 318.6295 0001378 133.9803  61.4490 15.73256645  7022,6727.734,91.53,350.526,348.672,0.0
51965.0,STARLINK-3696,PAYLOAD,2022-04-15 14:00:01,15.73283475,0.0001657,53.2145,316.5656,135.2541,261.4033,-0.00012105,-0.00017635,0.0,0 STARLINK-3696,1 51965U 22025K   22105.58334491 -.00017635  00000-0 -12105-3 0  9990,2 51965  53.2145 316.5656 0001657 135.2541 261.4033 15.73283475  7090,6727.656999999997,91.528,350.63699999999994,348.407,0.0
51965.0,STARLINK-3696,PAYLOAD,2022-04-15 22:00:00,15.73252507,0.0001488,53.214,314.9179,127.6353,358.0493,-0.00065113,-0.00091224,0.0,0 STARLINK-3696,1 51965U 22025K   22105.91667824 -.00091224  00000-0 -65113-3 0  9999,2 51965  53.2140 314.9179 0001488 127.6353 358.0493 15.73252507  7146,6727.745,91.53,350.612,348.6090000000001,0.0
51965.0,STARLINK-3696,PAYLOAD,2022-04-16 14:00:01,15.73051796,0.0001815,53.2137,311.6165,133.4403,170.0374,-7.41e-05,-0.0001094,0.0,0 STARLINK-3696,1 51965U 22025K   22106.58334491 -.00010940  00000-0 -74100-4 0  9997,2 51965  53.2137 311.6165 0001815 133.4403 170.0374 15.73051796  7255,6728.318,91.542,351.404,348.962,0.0
51965.0,STARLINK-3696,PAYLOAD,2022-04-16 22:00:01,15.73036797,0.000153,53.2139,309.9693,128.8544,263.4514,0.0005283999999999,0.00073672,0.0,0 STARLINK-3696,1 51965U 22025K   22106.91668981  .00073672  00000-0  52840-3 0  9993,2 51965  53.2139 309.9693 0001530 128.8544 263.4514 15.73036797  3715,6728.361,91.543,351.255,349.196,0.0
51965.0,STARLINK-3696,PAYLOAD,2022-04-17 06:00:00,15.73090965,0.0001517,53.2138,308.3186,132.0877,348.9207,0.0012114,0.00172114,0.0,0 STARLINK-3696,1 51965U 22025K   22107.25001157  .00172114  00000-0  12114-2 0  9997,2 51965  53.2138 308.3186 0001517 132.0877 348.9207 15.73090965  7354,6728.206,91.54,351.092,349.05,0.0
51965.0,STARLINK-3696,PAYLOAD,2022-04-17 14:00:01,15.73275475,0.0001686999999999,53.214,306.6684,133.6531,76.1996,-0.00024756,-0.00035332,0.0,0 STARLINK-3696,1 51965U 22025K   22107.58334491 -.00035332  00000-0 -24756-3 0  9991,2 51965  53.2140 306.6684 0001687 133.6531  76.1996 15.73275475  3715,6727.68,91.529,350.68,348.41,0.0
51965.0,STARLINK-3696,PAYLOAD,2022-04-17 22:00:00,15.73264719,0.0001402,53.2137,305.0206,125.7708,173.1199,-0.00017806,-0.00025603,0.0,0 STARLINK-3696,1 51965U 22025K   22107.91667824 -.00025603  00000-0 -17806-3 0  9995,2 51965  53.2137 305.0206 0001402 125.7708 173.1199 15.73264719  3708,6727.7109999999975,91.529,350.519,348.63199999999995,0.0
51965.0,STARLINK-3696,PAYLOAD,2022-04-18 08:00:01,15.73243601,0.0001361,53.2132,302.9563,140.0632,0.0749,0.00013127,0.00017876,0.0,0 STARLINK-3696,1 51965U 22025K   22108.33334491  .00017876  00000-0  13127-3 0  9996,2 51965  53.2132 302.9563 0001361 140.0632   0.0749 15.73243601  7525,6727.771,91.531,350.552,348.72,0.0
51965.0,STARLINK-3696,PAYLOAD,2022-04-18 14:00:01,15.73281773,0.0001444,53.2135,301.7188,138.5767,338.2983,-0.00060268,-0.00084652,0.0,0 STARLINK-3696,1 51965U 22025K   22108.58334491 -.00084652  00000-0 -60268-3 0  9999,2 51965  53.2135 301.7188 0001444 138.5767 338.2983 15.73281773  3705,6727.6619999999975,91.528,350.499,348.556,0.0
51965.0,STARLINK-3696,PAYLOAD,2022-04-18 20:00:01,15.73220145,0.000125,53.2136,300.4832,132.0327,321.5843,-0.00039836,-0.00056202,0.0,0 STARLINK-3696,1 51965U 22025K   22108.83334491 -.00056202  00000-0 -39836-3 0  9994,2 51965  53.2136 300.4832 0001250 132.0327 321.5843 15.73220145  7603,6727.8380000000025,91.532,350.5440000000001,348.862,0.0
51965.0,STARLINK-3696,PAYLOAD,2022-04-18 22:00:00,15.73193087,0.0001197,53.2139,300.0711,130.0244,75.8346,-0.00010885,-0.00015862,0.0,0 STARLINK-3696,1 51965U 22025K   22108.91667824 -.00015862  00000-0 -10885-3 0  9992,2 51965  53.2139 300.0711 0001197 130.0244  75.8346 15.73193087  3702,6727.915,91.534,350.585,348.975,0.0
51965.0,STARLINK-3696,PAYLOAD,2022-04-19 06:00:00,15.73186928,0.0001281,53.2139,298.4198,132.3421,162.4591,0.00027405,0.00037994,0.0,0 STARLINK-3696,1 51965U 22025K   22109.25001157  .00037994  00000-0  27405-3 0  9995,2 51965  53.2139 298.4198 0001281 132.3421 162.4591 15.73186928  7678,6727.932,91.534,350.659,348.936,0.0
51965.0,STARLINK-3696,PAYLOAD,2022-04-19 14:00:01,15.73230026,0.0001396999999999,53.2141,296.7697,130.6643,253.066,-0.00018944,-0.00027155,0.0,0 STARLINK-3696,1 51965U 22025K   22109.58334491 -.00027155  00000-0 -18944-3 0  9999,2 51965  53.2141 296.7697 0001397 130.6643 253.0660 15.73230026  3704,6727.81,91.531,350.61400000000015,348.735,0.0
51965.0,STARLINK-3696,PAYLOAD,2022-04-19 22:00:00,15.73185035,0.0001142,53.2138,295.122,122.6209,350.0677,0.00013995,0.00019053,0.0,0 STARLINK-3696,1 51965U 22025K   22109.91667824  .00019053  00000-0  13995-3 0  9992,2 51965  53.2138 295.1220 0001142 122.6209 350.0677 15.73185035  7778,6727.938,91.534,350.571,349.035,0.0
51965.0,STARLINK-3696,PAYLOAD,2022-04-20 14:00:01,15.73201998,0.0001323,53.2138,291.8211,129.9731,160.5148,3.9115e-05,4.873e-05,0.0,0 STARLINK-3696,1 51965U 22025K   22110.58334491  .00004873  00000-0  39115-4 0  9995,2 51965  53.2138 291.8211 0001323 129.9731 160.5148 15.73201998  7888,6727.889,91.533,350.645,348.86400000000015,0.0
51965.0,STARLINK-3696,PAYLOAD,2022-04-20 22:00:00,15.73162079,0.0001198,53.2139,290.1734,117.3313,262.1122,0.00060641,0.00085214,0.0,0 STARLINK-3696,1 51965U 22025K   22110.91667824  .00085214  00000-0  60641-3 0  9996,2 51965  53.2139 290.1734 0001198 117.3313 262.1122 15.73162079  3689,6728.003000000002,91.535,350.6740000000001,349.06199999999984,0.0
51965.0,STARLINK-3696,PAYLOAD,2022-04-21 06:00:00,15.73340893,0.0001229,53.2157,288.5136,121.8077,346.5216,-0.0033703,-0.00451803,0.0,0 STARLINK-3696,1 51965U 22025K   22111.25001157 -.00451803  00000-0 -33703-2 0  9996,2 51965  53.2157 288.5136 0001229 121.8077 346.5216 15.73340893  7988,6727.494000000002,91.525,350.185,348.532,0.0
51965.0,STARLINK-3696,PAYLOAD,2022-04-21 14:00:01,15.73231283,0.0001188,53.2142,286.8725,123.5943,73.6976,-0.00041062,-0.00057928,0.0,0 STARLINK-3696,1 51965U 22025K   22111.58334491 -.00057928  00000-0 -41062-3 0  9990,2 51965  53.2142 286.8725 0001188 123.5943  73.6976 15.73231283  3712,6727.806,91.531,350.47,348.872,0.0
51965.0,STARLINK-3696,PAYLOAD,2022-04-21 22:00:00,15.73205763,0.0001131,53.2138,285.2246,105.8656,180.4149,0.00015153,0.00020704,0.0,0 STARLINK-3696,1 51965U 22025K   22111.91667824  .00020704  00000-0  15153-3 0  9998,2 51965  53.2138 285.2246 0001131 105.8656 180.4149 15.73205763  3713,6727.879,91.533,350.505,348.983,0.0
51965.0,STARLINK-3696,PAYLOAD,2022-04-22 06:00:00,15.73191238,0.000128,53.2135,283.573,115.0938,260.1385,0.00058992,0.00082962,0.0,0 STARLINK-3696,1 51965U 22025K   22112.25001157  .00082962  00000-0  58992-3 0  9999,2 51965  53.2135 283.5730 0001280 115.0938 260.1385 15.73191238  8141,6727.92,91.534,350.646,348.9240000000001,0.0
51965.0,STARLINK-3696,PAYLOAD,2022-04-22 14:00:01,15.73267752,0.0001359,53.2137,281.9238,113.2132,350.9514,-0.00072921,-0.00102023,0.0,0 STARLINK-3696,1 51965U 22025K   22112.58334491 -.00102023  00000-0 -72921-3 0  9996,2 51965  53.2137 281.9238 0001359 113.2132 350.9514 15.73267752  3705,6727.7019999999975,91.529,350.481,348.653,0.0
51965.0,STARLINK-3696,PAYLOAD,2022-04-22 16:00:00,15.73244999,0.0001324,53.2136,281.5121,109.5783,106.8376,-0.00063741,-0.00089304,0.0,0 STARLINK-3696,1 51965U 22025K   22112.66667824 -.00089304  00000-0 -63741-3 0  9990,2 51965  53.2136 281.5121 0001324 109.5783 106.8376 15.73244999  8205,6727.767,91.531,350.523,348.741,0.0
51965.0,STARLINK-3696,PAYLOAD,2022-04-23 06:00:02,15.73147667,0.0001264,53.2138,278.6243,108.2551,173.8607,0.00053125,0.00074433,0.0,0 STARLINK-3696,1 51965U 22025K   22113.25002315  .00074433  00000-0  53125-3 0  9994,2 51965  53.2138 278.6243 0001264 108.2551 173.8607 15.73147667  8307,6728.044,91.536,350.76,349.059,0.0
51965.0,STARLINK-3696,PAYLOAD,2022-04-23 14:00:01,15.73493969,7.58e-05,53.2153,276.9671,113.6676,257.1957,-0.0053751999999999,-0.00703694,0.0,0 STARLINK-3696,1 51965U 22025K   22113.58334491 -.00703694  00000-0 -53752-2 0  9998,2 51965  53.2153 276.9671 0000758 113.6676 257.1957 15.73493969  8353,6727.057,91.516,349.432,348.412,0.0
51965.0,STARLINK-3696,PAYLOAD,2022-04-23 22:00:00,15.72913071,0.0001126,53.2165,275.3135,100.9497,358.9091,-0.0014011,-0.0019051,0.0,0 STARLINK-3696,1 51965U 22025K   22113.91667824 -.00190510  00000-0 -14011-2 0  9996,2 51965  53.2165 275.3135 0001126 100.9497 358.9091 15.72913071  8409,6728.7130000000025,91.55,351.336,349.821,0.0
51965.0,STARLINK-3696,PAYLOAD,2022-04-24 06:00:00,15.72777354,0.0001164,53.2174,273.6589,101.999,86.39200000000002,-0.0056479,-0.00715933,0.0,0 STARLINK-3696,1 51965U 22025K   22114.25001157 -.00715933  00000-0 -56479-2 0  9991,2 51965  53.2174 273.6589 0001164 101.9990  86.3920 15.72777354  8454,6729.1,91.558,351.749,350.182,0.0
51965.0,STARLINK-3696,PAYLOAD,2022-04-24 14:00:01,15.7226896,0.0001194,53.2176,272.0115,105.5864,170.91400000000004,-0.0057978,-0.00718843,0.0,0 STARLINK-3696,1 51965U 22025K   22114.58334491 -.00718843  00000-0 -57978-2 0  9995,2 51965  53.2176 272.0115 0001194 105.5864 170.9140 15.72268960  3702,6730.551,91.587,353.22,351.612,0.0
51965.0,STARLINK-3696,PAYLOAD,2022-04-25 06:00:00,15.71246958,0.0001013,53.2174,268.7179,93.9017,356.9826,-0.0060222,-0.00715151,0.0,0 STARLINK-3696,1 51965U 22025K   22115.25001157 -.00715151  00000-0 -60222-2 0  9995,2 51965  53.2174 268.7179 0001013  93.9017 356.9826 15.71246958  8616,6733.469,91.647,356.016,354.652,0.0
